{
  "type": "FeatureCollection",
  "features": [
    {
      "type": "Feature",
      "properties": {
        "norad_id": 67045,
        "name": "STARLINK-35891",
        "group": "last-30-days",
        "lat": -42.97207515190817,
        "lon": 44.58421314623752,
        "alt_km": 307.32531124717025,
        "timestamp": "2025-12-20T07:33:49.517024+00:00",
        "meta_object_name": "STARLINK-35891",
        "meta_object_id": "2025-294R",
        "meta_epoch": "2025-12-19T22:00:01.999584",
        "meta_mean_motion": 15.90152457,
        "meta_eccentricity": 0.00016496,
        "meta_inclination": 42.9998,
        "meta_ra_of_asc_node": 138.2863,
        "meta_arg_of_pericenter": 279.461,
        "meta_mean_anomaly": 226.6713,
        "meta_ephemeris_type": 0,
        "meta_classification_type": "U",
        "meta_norad_cat_id": 67045,
        "meta_element_set_no": 999,
        "meta_rev_at_epoch": 138,
        "meta_bstar": -0.0051254131,
        "meta_mean_motion_dot": -0.01405138,
        "meta_mean_motion_ddot": 0,
        "tle_line1": "1 67045U 25294R   25353.91668981 -.01405138  00000+0 -51254-2 0  9992",
        "tle_line2": "2 67045  42.9998 138.2863 0001649 279.4610 226.6713 15.90152457  1383"
      },
      "geometry": {
        "type": "Point",
        "coordinates": [
          44.58421314623752,
          -42.97207515190817
        ]
      }
    },
    {
      "type": "Feature",
      "properties": {
        "norad_id": 67046,
        "name": "STARLINK-35721",
        "group": "last-30-days",
        "lat": -42.96543313367868,
        "lon": 47.5681313044766,
        "alt_km": 307.2322750679459,
        "timestamp": "2025-12-20T07:33:49.517034+00:00",
        "meta_object_name": "STARLINK-35721",
        "meta_object_id": "2025-294S",
        "meta_epoch": "2025-12-19T22:00:01.999584",
        "meta_mean_motion": 15.90195539,
        "meta_eccentricity": 0.00015953,
        "meta_inclination": 43,
        "meta_ra_of_asc_node": 138.281,
        "meta_arg_of_pericenter": 278.4067,
        "meta_mean_anomaly": 229.8552,
        "meta_ephemeris_type": 0,
        "meta_classification_type": "U",
        "meta_norad_cat_id": 67046,
        "meta_element_set_no": 999,
        "meta_rev_at_epoch": 146,
        "meta_bstar": -0.0051264616,
        "meta_mean_motion_dot": -0.01408077,
        "meta_mean_motion_ddot": 0,
        "tle_line1": "1 67046U 25294S   25353.91668981 -.01408077  00000+0 -51265-2 0  9990",
        "tle_line2": "2 67046  43.0000 138.2810 0001595 278.4067 229.8552 15.90195539  1460"
      },
      "geometry": {
        "type": "Point",
        "coordinates": [
          47.5681313044766,
          -42.96543313367868
        ]
      }
    },
    {
      "type": "Feature",
      "properties": {
        "norad_id": 67047,
        "name": "STARLINK-35779",
        "group": "last-30-days",
        "lat": -42.86557778235072,
        "lon": 50.90159936817274,
        "alt_km": 307.0707862359277,
        "timestamp": "2025-12-20T07:33:49.517043+00:00",
        "meta_object_name": "STARLINK-35779",
        "meta_object_id": "2025-294T",
        "meta_epoch": "2025-12-19T22:00:01.999584",
        "meta_mean_motion": 15.9023851,
        "meta_eccentricity": 0.00016603,
        "meta_inclination": 42.9999,
        "meta_ra_of_asc_node": 138.2753,
        "meta_arg_of_pericenter": 278.5088,
        "meta_mean_anomaly": 232.1463,
        "meta_ephemeris_type": 0,
        "meta_classification_type": "U",
        "meta_norad_cat_id": 67047,
        "meta_element_set_no": 999,
        "meta_rev_at_epoch": 130,
        "meta_bstar": -0.0051404199,
        "meta_mean_motion_dot": -0.0141421,
        "meta_mean_motion_ddot": 0,
        "tle_line1": "1 67047U 25294T   25353.91668981 -.01414210  00000+0 -51404-2 0  9992",
        "tle_line2": "2 67047  42.9999 138.2753 0001660 278.5088 232.1463 15.90238510  1307"
      },
      "geometry": {
        "type": "Point",
        "coordinates": [
          50.90159936817274,
          -42.86557778235072
        ]
      }
    },
    {
      "type": "Feature",
      "properties": {
        "norad_id": 67048,
        "name": "STARLINK-35905",
        "group": "last-30-days",
        "lat": -42.73033165318333,
        "lon": 53.34568508946402,
        "alt_km": 306.9339272482548,
        "timestamp": "2025-12-20T07:33:49.517054+00:00",
        "meta_object_name": "STARLINK-35905",
        "meta_object_id": "2025-294U",
        "meta_epoch": "2025-12-19T22:00:01.999584",
        "meta_mean_motion": 15.90290057,
        "meta_eccentricity": 0.00016554,
        "meta_inclination": 42.9999,
        "meta_ra_of_asc_node": 138.2709,
        "meta_arg_of_pericenter": 275.3778,
        "meta_mean_anomaly": 237.0114,
        "meta_ephemeris_type": 0,
        "meta_classification_type": "U",
        "meta_norad_cat_id": 67048,
        "meta_element_set_no": 999,
        "meta_rev_at_epoch": 138,
        "meta_bstar": -0.0051600317,
        "meta_mean_motion_dot": -0.01422203,
        "meta_mean_motion_ddot": 0,
        "tle_line1": "1 67048U 25294U   25353.91668981 -.01422203  00000+0 -51600-2 0  9992",
        "tle_line2": "2 67048  42.9999 138.2709 0001655 275.3778 237.0114 15.90290057  1383"
      },
      "geometry": {
        "type": "Point",
        "coordinates": [
          53.34568508946402,
          -42.73033165318333
        ]
      }
    },
    {
      "type": "Feature",
      "properties": {
        "norad_id": 67049,
        "name": "STARLINK-35877",
        "group": "last-30-days",
        "lat": -42.47939725928798,
        "lon": 56.48241009167621,
        "alt_km": 306.82345349976913,
        "timestamp": "2025-12-20T07:33:49.517063+00:00",
        "meta_object_name": "STARLINK-35877",
        "meta_object_id": "2025-294V",
        "meta_epoch": "2025-12-19T22:00:01.999584",
        "meta_mean_motion": 15.90332197,
        "meta_eccentricity": 0.00016367,
        "meta_inclination": 43.0003,
        "meta_ra_of_asc_node": 138.2652,
        "meta_arg_of_pericenter": 278.0775,
        "meta_mean_anomaly": 236.5828,
        "meta_ephemeris_type": 0,
        "meta_classification_type": "U",
        "meta_norad_cat_id": 67049,
        "meta_element_set_no": 999,
        "meta_rev_at_epoch": 146,
        "meta_bstar": -0.0051554209,
        "meta_mean_motion_dot": -0.01423784,
        "meta_mean_motion_ddot": 0,
        "tle_line1": "1 67049U 25294V   25353.91668981 -.01423784  00000+0 -51554-2 0  9996",
        "tle_line2": "2 67049  43.0003 138.2652 0001636 278.0775 236.5828 15.90332197  1462"
      },
      "geometry": {
        "type": "Point",
        "coordinates": [
          56.48241009167621,
          -42.47939725928798
        ]
      }
    },
    {
      "type": "Feature",
      "properties": {
        "norad_id": 67050,
        "name": "STARLINK-36078",
        "group": "last-30-days",
        "lat": -42.13766086433736,
        "lon": 59.63147121553062,
        "alt_km": 306.7980252333282,
        "timestamp": "2025-12-20T07:33:49.517073+00:00",
        "meta_object_name": "STARLINK-36078",
        "meta_object_id": "2025-294W",
        "meta_epoch": "2025-12-19T22:00:01.999584",
        "meta_mean_motion": 15.90378256,
        "meta_eccentricity": 0.00014906,
        "meta_inclination": 43.0001,
        "meta_ra_of_asc_node": 138.2594,
        "meta_arg_of_pericenter": 276.0266,
        "meta_mean_anomaly": 240.9324,
        "meta_ephemeris_type": 0,
        "meta_classification_type": "U",
        "meta_norad_cat_id": 67050,
        "meta_element_set_no": 999,
        "meta_rev_at_epoch": 138,
        "meta_bstar": -0.0051724516,
        "meta_mean_motion_dot": -0.01430714,
        "meta_mean_motion_ddot": 0,
        "tle_line1": "1 67050U 25294W   25353.91668981 -.01430714  00000+0 -51725-2 0  9999",
        "tle_line2": "2 67050  43.0001 138.2594 0001490 276.0266 240.9324 15.90378256  1385"
      },
      "geometry": {
        "type": "Point",
        "coordinates": [
          59.63147121553062,
          -42.13766086433736
        ]
      }
    },
    {
      "type": "Feature",
      "properties": {
        "norad_id": 67051,
        "name": "STARLINK-35706",
        "group": "last-30-days",
        "lat": -41.70948555847494,
        "lon": 62.75029061647711,
        "alt_km": 306.63875613337495,
        "timestamp": "2025-12-20T07:33:49.517083+00:00",
        "meta_object_name": "STARLINK-35706",
        "meta_object_id": "2025-294X",
        "meta_epoch": "2025-12-19T22:00:01.999584",
        "meta_mean_motion": 15.90426839,
        "meta_eccentricity": 0.0001543,
        "meta_inclination": 43.0001,
        "meta_ra_of_asc_node": 138.2534,
        "meta_arg_of_pericenter": 274.0959,
        "meta_mean_anomaly": 245.166,
        "meta_ephemeris_type": 0,
        "meta_classification_type": "U",
        "meta_norad_cat_id": 67051,
        "meta_element_set_no": 999,
        "meta_rev_at_epoch": 146,
        "meta_bstar": -0.0051979586,
        "meta_mean_motion_dot": -0.01440034,
        "meta_mean_motion_ddot": 0,
        "tle_line1": "1 67051U 25294X   25353.91668981 -.01440034  00000+0 -51980-2 0  9999",
        "tle_line2": "2 67051  43.0001 138.2534 0001543 274.0959 245.1660 15.90426839  1466"
      },
      "geometry": {
        "type": "Point",
        "coordinates": [
          62.75029061647711,
          -41.70948555847494
        ]
      }
    }
  ]
}